1 45078U 20006AL  23001.53678130 -.00006275  00000-0 -40294-3 0  9995
2 45078  53.0560  88.2243 0001683  59.1907 300.9248 15.06382107161413
1 45078U 20006AL  23002.39927063 -.00001405  00000-0 -75413-4 0  9994
2 45078  53.0570  84.3532 0001928  47.3673 312.7479 15.06406947161543
1 45078U 20006AL  23002.53196367 -.00001396  00000-0 -74793-4 0  9994
2 45078  53.0564  83.7571 0001807  50.9178 309.1971 15.06407015161564
1 45078U 20006AL  23003.46083030  .00001990  00000-0  15253-3 0  9992
2 45078  53.0558  79.5879 0002096  50.9129 309.2046 15.06388347161704
1 45078U 20006AL  23004.45603306  .00001123  00000-0  94260-4 0  9990
2 45078  53.0551  75.1192 0002171  41.4873 318.6280 15.06400564161858
1 45078U 20006AL  23005.45121735  .00002547  00000-0  18975-3 0  9991
2 45078  53.0554  70.6518 0002263  49.9214 310.1973 15.06414508162004
1 45078U 20006AL  23005.58390903  .00002234  00000-0  16879-3 0  9994
2 45078  53.0549  70.0551 0002168  49.2819 310.8358 15.06416153162021
1 45078U 20006AL  23006.57915021 -.00003853  00000-0 -24007-3 0  9990
2 45078  53.0552  65.5883 0002265  38.2382 321.8767 15.06374397162178
1 45078U 20006AL  23007.17626543 -.00002726  00000-0 -16421-3 0  9994
2 45078  53.0554  62.9088 0002014  34.7859 325.3261 15.06387123162269
1 45078U 20006AL  23007.83972808 -.00000245  00000-0  24388-5 0  9991
2 45078  53.0560  59.9290 0002181  36.6194 323.4944 15.06394641162366
1 45078U 20006AL  23008.17147024  .00003734  00000-0  26964-3 0  9998
2 45078  53.0559  58.4401 0002131  32.8603 327.2518 15.06374127162412
1 45078U 20006AL  23008.83493699  .00004256  00000-0  30454-3 0  9992
2 45078  53.0564  55.4618 0002226  36.0716 324.0423 15.06388261162516
1 45078U 20006AL  23009.16667003  .00002125  00000-0  16153-3 0  9994
2 45078  53.0566  53.9729 0002192  38.0008 322.1136 15.06398694162568
1 45078U 20006AL  23010.49361491  .00005095  00000-0  36089-3 0  9993
2 45078  53.0565  48.0158 0002418  43.0578 317.0600 15.06381343162761
1 45078U 20006AL  23011.48874396  .00008931  00000-0  61655-3 0  9995
2 45078  53.0565  43.5480 0002294  37.9595 322.1556 15.06468904162915
1 45078U 20006AL  23012.35132755 -.00004486  00000-0 -28268-3 0  9994
2 45078  53.0571  39.6762 0001589  47.9067 312.2056 15.06366776163046
1 45078U 20006AL  23013.34650757 -.00003485  00000-0 -21513-3 0  9995
2 45078  53.0537  35.2093 0001496  65.1186 294.9958 15.06408835163194
1 45078U 20006AL  23013.74458609 -.00001319  00000-0 -69674-4 0  9996
2 45078  53.0544  33.4211 0001624  69.2798 290.8364 15.06408263163259
1 45078U 20006AL  23015.46963289  .00020353  00000-0  13807-2 0  9994
2 45078  53.0533  25.6772 0001898  81.8584 278.2620 15.06416266163514
1 45078U 20006AL  23015.73501900  .00011429  00000-0  78472-3 0  9996
2 45078  53.0543  24.4858 0001556  87.7817 272.3350 15.06408807163553
1 45078U 20006AL  23016.39847827  .00033248  00000-0  22380-2 0  9999
2 45078  53.0533  21.5082 0001611  89.4041 270.7132 15.06440123163657
1 45078U 20006AL  23016.73022942  .00002278  00000-0  17191-3 0  9994
2 45078  53.0519  20.0189 0003287  75.8219 284.3135 15.06380439163703
1 45078U 20006AL  23017.39371175  .00025342  00000-0  17159-2 0  9992
2 45078  53.0532  17.0402 0001728  73.1565 286.9613 15.06359866163805
1 45078U 20006AL  23017.72544848  .00039806  00000-0  26765-2 0  9991
2 45078  53.0534  15.5505 0001644  74.7829 285.3342 15.06395086163852
1 45078U 20006AL  23018.38890333  .00053410  00000-0  35714-2 0  9998
2 45078  53.0533  12.5724 0001690  73.1811 286.9363 15.06462969163952
1 45078U 20006AL  23019.58313926  .00034431  00000-0  23193-2 0  9999
2 45078  53.0535   7.2106 0001713  78.5410 281.5771 15.06396711164135
1 45078U 20006AL  23020.24660205  .00030733  00000-0  20712-2 0  9994
2 45078  53.0543   4.2312 0001737  69.0570 291.0605 15.06434231164231
1 45078U 20006AL  23025.28897768  .00029451  00000-0  19858-2 0  9993
2 45078  53.0539 341.5944 0001455  91.1979 268.9176 15.06437494164993
1 45078U 20006AL  23026.08513848  .00039060  00000-0  26245-2 0  9991
2 45078  53.0537 338.0206 0001542 114.6742 245.4408 15.06430575165115
1 45078U 20006AL  23027.27938554  .00005268  00000-0  37228-3 0  9995
2 45078  53.0534 332.6580 0001467 104.5004 255.6148 15.06397725165294
1 45078U 20006AL  23028.14189819  .00003958  00000-0  28449-3 0  9993
2 45078  53.0541 328.7820 0001495  95.5498 264.5662 15.06399734165429
1 45078U 20006AL  23029.86691610 -.00000326  00000-0 -29869-5 0  9997
2 45078  53.0522 321.0437 0001280  92.3456 267.7680 15.06395644165688
1 45078U 20006AL  23030.19864786  .00003365  00000-0  24462-3 0  9997
2 45078  53.0523 319.5546 0001329  84.5417 275.5724 15.06406933165732
1 45078U 20006AL  23030.92846452  .00000077  00000-0  24092-4 0  9995
2 45078  53.0528 316.2776 0001306 100.3102 259.8034 15.06401589165842
1 45078U 20006AL  23031.19384664  .00002649  00000-0  19661-3 0  9999
2 45078  53.0526 315.0862 0001302  94.6250 265.4888 15.06411251165889
1 45078U 20006AL  23031.85731911  .00003788  00000-0  27304-3 0  9991
2 45078  53.0522 312.1079 0001334  95.9479 264.1662 15.06404212165981
1 45078U 20006AL  23032.18904617  .00007749  00000-0  53823-3 0  9999
2 45078  53.0524 310.6180 0001307 102.0098 258.1037 15.06419507166035
1 45078U 20006AL  23033.11790862  .00001847  00000-0  14284-3 0  9999
2 45078  53.0522 306.4485 0001282  99.7490 260.3643 15.06399096166177
1 45078U 20006AL  23034.17945618  .00008805  00000-0  60909-3 0  9993
2 45078  53.0520 301.6827 0001215  99.1446 260.9681 15.06411010166330
1 45078U 20006AL  23035.90447778  .00003498  00000-0  25355-3 0  9998
2 45078  53.0518 293.9405 0001232  81.1530 278.9598 15.06403336166592
1 45078U 20006AL  23035.97082261  .00003518  00000-0  25491-3 0  9991
2 45078  53.0504 293.6402 0001147 100.8059 259.3059 15.06404734166601
1 45078U 20006AL  23036.96603191  .00001528  00000-0  12143-3 0  9991
2 45078  53.0507 289.1738 0001104  86.8599 273.2516 15.06395070166752
1 45078U 20006AL  23037.16508196 -.00004256  00000-0 -26719-3 0  9990
2 45078  53.0525 288.2803 0001495  87.1778 272.9382 15.06375176166786
1 45078U 20006AL  23037.96123104  .00004728  00000-0  33600-3 0  9999
2 45078  53.0524 284.7074 0001229  88.0876 272.0254 15.06408137166907
1 45078U 20006AL  23038.16026740  .00011691  00000-0  80198-3 0  9991
2 45078  53.0519 283.8121 0001245  91.3845 268.7287 15.06422872166938
1 45078U 20006AL  23038.89008663  .00003427  00000-0  24884-3 0  9993
2 45078  53.0517 280.5348 0001238  96.7386 263.3744 15.06403572167040
1 45078U 20006AL  23039.15546825  .00016819  00000-0  11445-2 0  9997
2 45078  53.0511 279.3436 0001140  97.4687 262.6431 15.06426011167084
1 45078U 20006AL  23039.88528943  .00022675  00000-0  15361-2 0  9996
2 45078  53.0510 276.0680 0001166 131.4853 228.6236 15.06403941167194
1 45078U 20006AL  23040.08433028  .00028454  00000-0  19208-2 0  9994
2 45078  53.0508 275.1745 0000807  99.8863 260.2217 15.06411529167228
1 45078U 20006AL  23040.81414889  .00023159  00000-0  15683-2 0  9999
2 45078  53.0502 271.8980 0000851 131.4114 228.6948 15.06405940167338
1 45078U 20006AL  23040.88049529  .00019731  00000-0  13396-2 0  9991
2 45078  53.0502 271.6001 0000864 136.4674 223.6384 15.06404954167344
1 45078U 20006AL  23041.87569823  .00015705  00000-0  10705-2 0  9993
2 45078  53.0504 267.1314 0000945 116.1940 243.9146 15.06412102167495
1 45078U 20006AL  23041.94204384  .00016022  00000-0  10916-2 0  9996
2 45078  53.0502 266.8338 0000667  86.8615 273.2450 15.06416441167504
1 45078U 20006AL  23042.87090316  .00007508  00000-0  52237-3 0  9999
2 45078  53.0520 262.6625 0000846  85.6794 274.4292 15.06402953167646
1 45078U 20006AL  23043.33533202  .00005102  00000-0  36115-3 0  9992
2 45078  53.0507 260.5775 0000927  81.0232 279.0862 15.06398872167717
1 45078U 20006AL  23043.99880248  .00002965  00000-0  21785-3 0  9990
2 45078  53.0515 257.5978 0001162  96.8151 263.2970 15.06398514167812
1 45078U 20006AL  23045.59113114  .00001200  00000-0  99415-4 0  9996
2 45078  53.0527 250.4496 0001154  87.6129 272.4992 15.06395110168058
1 45078U 20006AL  23046.58632834 -.00001289  00000-0 -67626-4 0  9999
2 45078  53.0506 245.9825 0000978  93.6204 266.4897 15.06407698168203
1 45078U 20006AL  23046.91805995  .00001739  00000-0  13558-3 0  9998
2 45078  53.0504 244.4934 0000963  91.9655 268.1444 15.06409656168259
1 45078U 20006AL  23047.58153229  .00000194  00000-0  31902-4 0  9996
2 45078  53.0513 241.5152 0000778  79.7744 280.3332 15.06398350168357
1 45078U 20006AL  23047.91326377  .00002086  00000-0  15885-3 0  9992
2 45078  53.0502 240.0253 0000828  86.9356 273.1728 15.06404151168408
1 45078U 20006AL  23048.51039052 -.00000013  00000-0  18047-4 0  9993
2 45078  53.0496 237.3436 0001034  85.9639 274.1468 15.06394314168495
1 45078U 20006AL  23048.77577873  .00000183  00000-0  31164-4 0  9991
2 45078  53.0496 236.1521 0001035  85.4626 274.6481 15.06394169168532
1 45078U 20006AL  23049.50559426  .00001536  00000-0  12198-3 0  9995
2 45078  53.0498 232.8759 0001331  89.4572 270.6569 15.06398651168648
1 45078U 20006AL  23050.56713204  .00005234  00000-0  36986-3 0  9999
2 45078  53.0509 228.1103 0001087  80.0389 280.0723 15.06414445168808
1 45078U 20006AL  23051.49599057 -.00002166  00000-0 -12659-3 0  9994
2 45078  53.0515 223.9400 0001140  90.3302 269.7818 15.06396512168945
1 45078U 20006AL  23052.62388929  .00012754  00000-0  87343-3 0  9998
2 45078  53.0521 218.8765 0001221  88.8813 271.2315 15.06404356169114
1 45078U 20006AL  23052.88927346  .00015611  00000-0  10641-2 0  9999
2 45078  53.0519 217.6850 0001218  88.4367 271.6761 15.06416232169158
1 45078U 20006AL  23053.42005771  .00000383  00000-0  44608-4 0  9991
2 45078  53.0518 215.3023 0002076  88.5354 271.5873 15.06390613169230
1 45078U 20006AL  23053.81814488  .00001888  00000-0  14566-3 0  9997
2 45078  53.0519 213.5153 0001369  97.4577 262.6568 15.06380078169297
1 45078U 20006AL  23054.48161840  .00021079  00000-0  14297-2 0  9992
2 45078  53.0517 210.5365 0001227  98.7949 261.3179 15.06402396169390
